{
  "type": "Feature",
  "properties": {
    "name": "Ann Arbor highway ring (M-14 / US-23 / I-94)"
  },
  "geometry": {
    "type": "Polygon",
    "coordinates": [
      [
        [
          -83.67647,
          42.2808
        ],
        [
          -83.67649,
          42.28123
        ],
        [
          -83.6765,
          42.28166
        ],
        [
          -83.67651,
          42.28209
        ],
        [
          -83.67652,
          42.28252
        ],
        [
          -83.67653,
          42.28295
        ],
        [
          -83.67654,
          42.28338
        ],
        [
          -83.67655,
          42.28381
        ],
        [
          -83.67656,
          42.28424
        ],
        [
          -83.67657,
          42.28467
        ],
        [
          -83.67659,
          42.2851
        ],
        [
          -83.6766,
          42.28553
        ],
        [
          -83.67663,
          42.28596
        ],
        [
          -83.67669,
          42.28639
        ],
        [
          -83.67678,
          42.28682
        ],
        [
          -83.67688,
          42.28724
        ],
        [
          -83.67701,
          42.28766
        ],
        [
          -83.67716,
          42.28808
        ],
        [
          -83.67734,
          42.28849
        ],
        [
          -83.67754,
          42.2889
        ],
        [
          -83.67777,
          42.28931
        ],
        [
          -83.67802,
          42.28971
        ],
        [
          -83.6783,
          42.2901
        ],
        [
          -83.6786,
          42.29049
        ],
        [
          -83.67893,
          42.29088
        ],
        [
          -83.67929,
          42.29125
        ],
        [
          -83.67969,
          42.29161
        ],
        [
          -83.68011,
          42.29197
        ],
        [
          -83.68052,
          42.29233
        ],
        [
          -83.68093,
          42.29268
        ],
        [
          -83.68134,
          42.29302
        ],
        [
          -83.68174,
          42.29337
        ],
        [
          -83.68215,
          42.29371
        ],
        [
          -83.68256,
          42.29405
        ],
        [
          -83.68296,
          42.29438
        ],
        [
          -83.68335,
          42.29472
        ],
        [
          -83.68374,
          42.29505
        ],
        [
          -83.68411,
          42.29538
        ],
        [
          -83.68446,
          42.29571
        ],
        [
          -83.68478,
          42.29605
        ],
        [
          -83.68509,
          42.2964
        ],
        [
          -83.68537,
          42.29674
        ],
        [
          -83.68563,
          42.29709
        ],
        [
          -83.68587,
          42.29745
        ],
        [
          -83.68609,
          42.29781
        ],
        [
          -83.6863,
          42.29818
        ],
        [
          -83.68648,
          42.29855
        ],
        [
          -83.68665,
          42.29893
        ],
        [
          -83.68681,
          42.29931
        ],
        [
          -83.68696,
          42.2997
        ],
        [
          -83.68709,
          42.30009
        ],
        [
          -83.6872,
          42.30049
        ],
        [
          -83.68728,
          42.30091
        ],
        [
          -83.68734,
          42.30133
        ],
        [
          -83.68737,
          42.30177
        ],
        [
          -83.6874,
          42.30221
        ],
        [
          -83.68746,
          42.30265
        ],
        [
          -83.68758,
          42.30306
        ],
        [
          -83.68776,
          42.30345
        ],
        [
          -83.68801,
          42.30382
        ],
        [
          -83.68832,
          42.30416
        ],
        [
          -83.68868,
          42.30447
        ],
        [
          -83.68902,
          42.3048
        ],
        [
          -83.68931,
          42.30514
        ],
        [
          -83.68953,
          42.30552
        ],
        [
          -83.68918,
          42.30617
        ],
        [
          -83.68937,
          42.30657
        ],
        [
          -83.68951,
          42.307
        ],
        [
          -83.68904,
          42.30773
        ],
        [
          -83.68812,
          42.3087
        ],
        [
          -83.68782,
          42.30938
        ],
        [
          -83.68774,
          42.30996
        ],
        [
          -83.68774,
          42.31051
        ],
        [
          -83.68774,
          42.31106
        ],
        [
          -83.68775,
          42.3116
        ],
        [
          -83.6878,
          42.31214
        ],
        [
          -83.68786,
          42.31268
        ],
        [
          -83.68793,
          42.31321
        ],
        [
          -83.68803,
          42.31374
        ],
        [
          -83.68814,
          42.31426
        ],
        [
          -83.68826,
          42.31478
        ],
        [
          -83.68842,
          42.31529
        ],
        [
          -83.68859,
          42.31579
        ],
        [
          -83.6888,
          42.31628
        ],
        [
          -83.68902,
          42.31676
        ],
        [
          -83.68925,
          42.31724
        ],
        [
          -83.68952,
          42.3177
        ],
        [
          -83.68979,
          42.31816
        ],
        [
          -83.69007,
          42.31862
        ],
        [
          -83.69035,
          42.31908
        ],
        [
          -83.69063,
          42.31955
        ],
        [
          -83.69091,
          42.32001
        ],
        [
          -83.69124,
          42.32046
        ],
        [
          -83.6916,
          42.32087
        ],
        [
          -83.69202,
          42.32125
        ],
        [
          -83.69246,
          42.32161
        ],
        [
          -83.69293,
          42.32194
        ],
        [
          -83.69343,
          42.32225
        ],
        [
          -83.69398,
          42.32252
        ],
        [
          -83.69455,
          42.32277
        ],
        [
          -83.69516,
          42.32298
        ],
        [
          -83.69579,
          42.32317
        ],
        [
          -83.69642,
          42.32336
        ],
        [
          -83.69712,
          42.32348
        ],
        [
          -83.69786,
          42.32355
        ],
        [
          -83.69863,
          42.32358
        ],
        [
          -83.69939,
          42.32361
        ],
        [
          -83.70016,
          42.32364
        ],
        [
          -83.7009,
          42.32367
        ],
        [
          -83.70164,
          42.3237
        ],
        [
          -83.70237,
          42.32373
        ],
        [
          -83.70309,
          42.32377
        ],
        [
          -83.7038,
          42.3238
        ],
        [
          -83.70451,
          42.32383
        ],
        [
          -83.70521,
          42.32386
        ],
        [
          -83.7059,
          42.32389
        ],
        [
          -83.70659,
          42.32391
        ],
        [
          -83.70727,
          42.32394
        ],
        [
          -83.70795,
          42.32396
        ],
        [
          -83.70863,
          42.32397
        ],
        [
          -83.70932,
          42.32396
        ],
        [
          -83.71002,
          42.32393
        ],
        [
          -83.71071,
          42.3239
        ],
        [
          -83.71141,
          42.32385
        ],
        [
          -83.71211,
          42.32378
        ],
        [
          -83.71281,
          42.3237
        ],
        [
          -83.71351,
          42.32362
        ],
        [
          -83.71419,
          42.32355
        ],
        [
          -83.71487,
          42.32347
        ],
        [
          -83.71554,
          42.3234
        ],
        [
          -83.7162,
          42.32332
        ],
        [
          -83.71685,
          42.32325
        ],
        [
          -83.7175,
          42.32318
        ],
        [
          -83.71814,
          42.3231
        ],
        [
          -83.71877,
          42.32303
        ],
        [
          -83.7194,
          42.32295
        ],
        [
          -83.72002,
          42.32288
        ],
        [
          -83.72064,
          42.3228
        ],
        [
          -83.72125,
          42.32272
        ],
        [
          -83.72186,
          42.32264
        ],
        [
          -83.72246,
          42.32256
        ],
        [
          -83.72306,
          42.32247
        ],
        [
          -83.72365,
          42.32237
        ],
        [
          -83.72425,
          42.32226
        ],
        [
          -83.72484,
          42.32215
        ],
        [
          -83.72543,
          42.32203
        ],
        [
          -83.72601,
          42.32191
        ],
        [
          -83.72659,
          42.32178
        ],
        [
          -83.72716,
          42.32166
        ],
        [
          -83.72773,
          42.32153
        ],
        [
          -83.72829,
          42.32141
        ],
        [
          -83.72885,
          42.32129
        ],
        [
          -83.7294,
          42.32117
        ],
        [
          -83.72994,
          42.32105
        ],
        [
          -83.73048,
          42.32093
        ],
        [
          -83.73101,
          42.32081
        ],
        [
          -83.73154,
          42.32069
        ],
        [
          -83.73206,
          42.32057
        ],
        [
          -83.73258,
          42.32045
        ],
        [
          -83.7331,
          42.32034
        ],
        [
          -83.73361,
          42.32021
        ],
        [
          -83.73411,
          42.32009
        ],
        [
          -83.73461,
          42.31997
        ],
        [
          -83.73511,
          42.31987
        ],
        [
          -83.7356,
          42.31976
        ],
        [
          -83.73609,
          42.31963
        ],
        [
          -83.73658,
          42.31946
        ],
        [
          -83.73708,
          42.31925
        ],
        [
          -83.73758,
          42.31897
        ],
        [
          -83.73808,
          42.31858
        ],
        [
          -83.7386,
          42.31803
        ],
        [
          -83.73913,
          42.31714
        ],
        [
          -83.73965,
          42.31626
        ],
        [
          -83.74014,
          42.31536
        ],
        [
          -83.74061,
          42.31453
        ],
        [
          -83.74106,
          42.31366
        ],
        [
          -83.74149,
          42.31289
        ],
        [
          -83.74189,
          42.31223
        ],
        [
          -83.74227,
          42.31159
        ],
        [
          -83.74264,
          42.31097
        ],
        [
          -83.743,
          42.31038
        ],
        [
          -83.74334,
          42.30952
        ],
        [
          -83.74356,
          42.30449
        ],
        [
          -83.74383,
          42.30432
        ],
        [
          -83.7441,
          42.30409
        ],
        [
          -83.74434,
          42.30359
        ],
        [
          -83.74463,
          42.30379
        ],
        [
          -83.74487,
          42.30344
        ],
        [
          -83.74511,
          42.30311
        ],
        [
          -83.74534,
          42.30278
        ],
        [
          -83.74556,
          42.30247
        ],
        [
          -83.74578,
          42.30216
        ],
        [
          -83.74599,
          42.30186
        ],
        [
          -83.7462,
          42.30156
        ],
        [
          -83.74639,
          42.30124
        ],
        [
          -83.74657,
          42.30089
        ],
        [
          -83.74675,
          42.30055
        ],
        [
          -83.74678,
          42.29951
        ],
        [
          -83.74718,
          42.30031
        ],
        [
          -83.74719,
          42.29933
        ],
        [
          -83.74756,
          42.29994
        ],
        [
          -83.74775,
          42.29978
        ],
        [
          -83.74795,
          42.29963
        ],
        [
          -83.74814,
          42.2995
        ],
        [
          -83.74833,
          42.29937
        ],
        [
          -83.74853,
          42.29925
        ],
        [
          -83.74872,
          42.29914
        ],
        [
          -83.74892,
          42.29903
        ],
        [
          -83.74911,
          42.29893
        ],
        [
          -83.7493,
          42.29883
        ],
        [
          -83.7495,
          42.29874
        ],
        [
          -83.74969,
          42.29866
        ],
        [
          -83.74989,
          42.29858
        ],
        [
          -83.75009,
          42.29852
        ],
        [
          -83.75029,
          42.29845
        ],
        [
          -83.7505,
          42.29839
        ],
        [
          -83.7507,
          42.29833
        ],
        [
          -83.75091,
          42.29828
        ],
        [
          -83.75111,
          42.29823
        ],
        [
          -83.75132,
          42.29819
        ],
        [
          -83.75154,
          42.29815
        ],
        [
          -83.75175,
          42.29812
        ],
        [
          -83.75197,
          42.29809
        ],
        [
          -83.75219,
          42.29806
        ],
        [
          -83.75242,
          42.29805
        ],
        [
          -83.75264,
          42.29803
        ],
        [
          -83.75288,
          42.29802
        ],
        [
          -83.75312,
          42.29802
        ],
        [
          -83.75336,
          42.29802
        ],
        [
          -83.75361,
          42.29803
        ],
        [
          -83.75386,
          42.29804
        ],
        [
          -83.75412,
          42.29805
        ],
        [
          -83.75438,
          42.29807
        ],
        [
          -83.75465,
          42.29808
        ],
        [
          -83.75491,
          42.2981
        ],
        [
          -83.75518,
          42.29811
        ],
        [
          -83.75545,
          42.29812
        ],
        [
          -83.75572,
          42.29814
        ],
        [
          -83.756,
          42.29815
        ],
        [
          -83.75628,
          42.29817
        ],
        [
          -83.75657,
          42.29819
        ],
        [
          -83.75686,
          42.2982
        ],
        [
          -83.75715,
          42.29822
        ],
        [
          -83.75744,
          42.29824
        ],
        [
          -83.75774,
          42.29825
        ],
        [
          -83.75804,
          42.29827
        ],
        [
          -83.75835,
          42.29829
        ],
        [
          -83.75866,
          42.29831
        ],
        [
          -83.75898,
          42.29833
        ],
        [
          -83.7593,
          42.29834
        ],
        [
          -83.75962,
          42.29836
        ],
        [
          -83.75995,
          42.29838
        ],
        [
          -83.76028,
          42.2984
        ],
        [
          -83.76062,
          42.29842
        ],
        [
          -83.76097,
          42.29844
        ],
        [
          -83.76132,
          42.29846
        ],
        [
          -83.76167,
          42.29848
        ],
        [
          -83.76203,
          42.2985
        ],
        [
          -83.7624,
          42.29852
        ],
        [
          -83.76277,
          42.29854
        ],
        [
          -83.76315,
          42.29857
        ],
        [
          -83.76353,
          42.29859
        ],
        [
          -83.76393,
          42.29861
        ],
        [
          -83.76433,
          42.29863
        ],
        [
          -83.76474,
          42.29866
        ],
        [
          -83.76516,
          42.29869
        ],
        [
          -83.76559,
          42.29873
        ],
        [
          -83.76606,
          42.29878
        ],
        [
          -83.76657,
          42.29886
        ],
        [
          -83.76713,
          42.29896
        ],
        [
          -83.76774,
          42.2991
        ],
        [
          -83.76837,
          42.29925
        ],
        [
          -83.76905,
          42.29941
        ],
        [
          -83.76976,
          42.29959
        ],
        [
          -83.77049,
          42.29977
        ],
        [
          -83.77124,
          42.29995
        ],
        [
          -83.77203,
          42.30014
        ],
        [
          -83.77284,
          42.30033
        ],
        [
          -83.77369,
          42.30054
        ],
        [
          -83.77451,
          42.30071
        ],
        [
          -83.77523,
          42.30081
        ],
        [
          -83.77586,
          42.30084
        ],
        [
          -83.77641,
          42.30082
        ],
        [
          -83.7769,
          42.30075
        ],
        [
          -83.77736,
          42.30066
        ],
        [
          -83.77777,
          42.30054
        ],
        [
          -83.77818,
          42.30041
        ],
        [
          -83.77859,
          42.30029
        ],
        [
          -83.77902,
          42.30016
        ],
        [
          -83.7795,
          42.30006
        ],
        [
          -83.78003,
          42.29998
        ],
        [
          -83.78057,
          42.2999
        ],
        [
          -83.78229,
          42.30041
        ],
        [
          -83.78199,
          42.2999
        ],
        [
          -83.78258,
          42.29981
        ],
        [
          -83.78306,
          42.29968
        ],
        [
          -83.78347,
          42.29951
        ],
        [
          -83.78381,
          42.2993
        ],
        [
          -83.7841,
          42.29907
        ],
        [
          -83.78434,
          42.29882
        ],
        [
          -83.78449,
          42.29852
        ],
        [
          -83.78461,
          42.29822
        ],
        [
          -83.78463,
          42.29787
        ],
        [
          -83.78469,
          42.29755
        ],
        [
          -83.78488,
          42.29728
        ],
        [
          -83.78513,
          42.29703
        ],
        [
          -83.78538,
          42.29678
        ],
        [
          -83.78567,
          42.29654
        ],
        [
          -83.7861,
          42.29635
        ],
        [
          -83.78688,
          42.29628
        ],
        [
          -83.78783,
          42.29627
        ],
        [
          -83.78858,
          42.29617
        ],
        [
          -83.78918,
          42.29601
        ],
        [
          -83.78968,
          42.29582
        ],
        [
          -83.7901,
          42.29559
        ],
        [
          -83.79052,
          42.29536
        ],
        [
          -83.79097,
          42.29514
        ],
        [
          -83.79134,
          42.29489
        ],
        [
          -83.7917,
          42.29463
        ],
        [
          -83.79207,
          42.29437
        ],
        [
          -83.79245,
          42.29412
        ],
        [
          -83.79284,
          42.29386
        ],
        [
          -83.79321,
          42.29359
        ],
        [
          -83.79359,
          42.29332
        ],
        [
          -83.79398,
          42.29306
        ],
        [
          -83.79438,
          42.29279
        ],
        [
          -83.79478,
          42.29251
        ],
        [
          -83.79519,
          42.29224
        ],
        [
          -83.7956,
          42.29196
        ],
        [
          -83.79602,
          42.29168
        ],
        [
          -83.79643,
          42.29139
        ],
        [
          -83.79685,
          42.2911
        ],
        [
          -83.79727,
          42.29081
        ],
        [
          -83.79772,
          42.29052
        ],
        [
          -83.79824,
          42.29023
        ],
        [
          -83.79884,
          42.28996
        ],
        [
          -83.79954,
          42.28969
        ],
        [
          -83.80026,
          42.28942
        ],
        [
          -83.801,
          42.28914
        ],
        [
          -83.80176,
          42.28886
        ],
        [
          -83.80255,
          42.28857
        ],
        [
          -83.80295,
          42.28822
        ],
        [
          -83.8014,
          42.28764
        ],
        [
          -83.79739,
          42.28681
        ],
        [
          -83.79326,
          42.28603
        ],
        [
          -83.78968,
          42.28535
        ],
        [
          -83.78763,
          42.28485
        ],
        [
          -83.78681,
          42.28449
        ],
        [
          -83.78623,
          42.28416
        ],
        [
          -83.78572,
          42.28384
        ],
        [
          -83.78533,
          42.28354
        ],
        [
          -83.78501,
          42.28325
        ],
        [
          -83.78473,
          42.28296
        ],
        [
          -83.78448,
          42.28268
        ],
        [
          -83.78427,
          42.2824
        ],
        [
          -83.78407,
          42.28213
        ],
        [
          -83.78386,
          42.28186
        ],
        [
          -83.78359,
          42.28159
        ],
        [
          -83.78324,
          42.28132
        ],
        [
          -83.78362,
          42.28106
        ],
        [
          -83.78366,
          42.2808
        ],
        [
          -83.78367,
          42.28054
        ],
        [
          -83.78367,
          42.28027
        ],
        [
          -83.78369,
          42.28001
        ],
        [
          -83.78372,
          42.27975
        ],
        [
          -83.78374,
          42.27948
        ],
        [
          -83.78377,
          42.27922
        ],
        [
          -83.78379,
          42.27895
        ],
        [
          -83.78382,
          42.27869
        ],
        [
          -83.78387,
          42.27842
        ],
        [
          -83.78392,
          42.27815
        ],
        [
          -83.78393,
          42.27788
        ],
        [
          -83.78395,
          42.27762
        ],
        [
          -83.78396,
          42.27735
        ],
        [
          -83.78398,
          42.27708
        ],
        [
          -83.784,
          42.27681
        ],
        [
          -83.78401,
          42.27654
        ],
        [
          -83.78403,
          42.27626
        ],
        [
          -83.78405,
          42.27599
        ],
        [
          -83.78407,
          42.27572
        ],
        [
          -83.78409,
          42.27544
        ],
        [
          -83.78411,
          42.27516
        ],
        [
          -83.78413,
          42.27489
        ],
        [
          -83.78415,
          42.27461
        ],
        [
          -83.78417,
          42.27433
        ],
        [
          -83.78419,
          42.27404
        ],
        [
          -83.7842,
          42.27376
        ],
        [
          -83.78422,
          42.27348
        ],
        [
          -83.78424,
          42.27319
        ],
        [
          -83.78426,
          42.2729
        ],
        [
          -83.78429,
          42.27262
        ],
        [
          -83.78431,
          42.27232
        ],
        [
          -83.78432,
          42.27203
        ],
        [
          -83.78434,
          42.27174
        ],
        [
          -83.78435,
          42.27145
        ],
        [
          -83.78437,
          42.27115
        ],
        [
          -83.78439,
          42.27085
        ],
        [
          -83.78441,
          42.27055
        ],
        [
          -83.78444,
          42.27024
        ],
        [
          -83.78446,
          42.26994
        ],
        [
          -83.78448,
          42.26963
        ],
        [
          -83.7845,
          42.26932
        ],
        [
          -83.78452,
          42.26901
        ],
        [
          -83.78454,
          42.26869
        ],
        [
          -83.78456,
          42.26838
        ],
        [
          -83.78457,
          42.26806
        ],
        [
          -83.78459,
          42.26774
        ],
        [
          -83.78462,
          42.26741
        ],
        [
          -83.78464,
          42.26708
        ],
        [
          -83.78467,
          42.26675
        ],
        [
          -83.78469,
          42.26642
        ],
        [
          -83.7847,
          42.26608
        ],
        [
          -83.7847,
          42.26575
        ],
        [
          -83.78467,
          42.26543
        ],
        [
          -83.78464,
          42.2651
        ],
        [
          -83.7846,
          42.26478
        ],
        [
          -83.78455,
          42.26446
        ],
        [
          -83.78447,
          42.26414
        ],
        [
          -83.78439,
          42.26383
        ],
        [
          -83.7843,
          42.26351
        ],
        [
          -83.78419,
          42.26321
        ],
        [
          -83.78407,
          42.2629
        ],
        [
          -83.78393,
          42.2626
        ],
        [
          -83.78379,
          42.26231
        ],
        [
          -83.78363,
          42.26201
        ],
        [
          -83.78346,
          42.26173
        ],
        [
          -83.78328,
          42.26144
        ],
        [
          -83.7831,
          42.26116
        ],
        [
          -83.78289,
          42.26089
        ],
        [
          -83.78269,
          42.26062
        ],
        [
          -83.78246,
          42.26036
        ],
        [
          -83.78223,
          42.2601
        ],
        [
          -83.78198,
          42.25984
        ],
        [
          -83.78173,
          42.2596
        ],
        [
          -83.78146,
          42.25936
        ],
        [
          -83.78119,
          42.25912
        ],
        [
          -83.7809,
          42.25889
        ],
        [
          -83.78061,
          42.25867
        ],
        [
          -83.78032,
          42.25844
        ],
        [
          -83.78002,
          42.25822
        ],
        [
          -83.77973,
          42.258
        ],
        [
          -83.77943,
          42.25778
        ],
        [
          -83.77914,
          42.25756
        ],
        [
          -83.77885,
          42.25734
        ],
        [
          -83.77856,
          42.25711
        ],
        [
          -83.77827,
          42.25689
        ],
        [
          -83.77798,
          42.25667
        ],
        [
          -83.77769,
          42.25644
        ],
        [
          -83.77739,
          42.25623
        ],
        [
          -83.7771,
          42.25601
        ],
        [
          -83.77681,
          42.25579
        ],
        [
          -83.77651,
          42.25557
        ],
        [
          -83.77622,
          42.25535
        ],
        [
          -83.77593,
          42.25513
        ],
        [
          -83.77563,
          42.25491
        ],
        [
          -83.77534,
          42.25469
        ],
        [
          -83.77505,
          42.25447
        ],
        [
          -83.77475,
          42.25425
        ],
        [
          -83.77446,
          42.25402
        ],
        [
          -83.77417,
          42.2538
        ],
        [
          -83.77388,
          42.25358
        ],
        [
          -83.77358,
          42.25335
        ],
        [
          -83.77329,
          42.25313
        ],
        [
          -83.77299,
          42.2529
        ],
        [
          -83.7727,
          42.25268
        ],
        [
          -83.7724,
          42.25246
        ],
        [
          -83.7721,
          42.25223
        ],
        [
          -83.7718,
          42.25201
        ],
        [
          -83.7715,
          42.25178
        ],
        [
          -83.7712,
          42.25155
        ],
        [
          -83.7709,
          42.25132
        ],
        [
          -83.7706,
          42.25109
        ],
        [
          -83.7703,
          42.25086
        ],
        [
          -83.76999,
          42.25063
        ],
        [
          -83.76969,
          42.2504
        ],
        [
          -83.76937,
          42.25018
        ],
        [
          -83.76903,
          42.24999
        ],
        [
          -83.76871,
          42.24976
        ],
        [
          -83.76839,
          42.24953
        ],
        [
          -83.76808,
          42.2493
        ],
        [
          -83.76776,
          42.24907
        ],
        [
          -83.76744,
          42.24884
        ],
        [
          -83.76712,
          42.2486
        ],
        [
          -83.7668,
          42.24837
        ],
        [
          -83.76645,
          42.24817
        ],
        [
          -83.76607,
          42.24801
        ],
        [
          -83.76566,
          42.2479
        ],
        [
          -83.76522,
          42.24782
        ],
        [
          -83.76477,
          42.24778
        ],
        [
          -83.76431,
          42.24775
        ],
        [
          -83.76385,
          42.24772
        ],
        [
          -83.76341,
          42.24767
        ],
        [
          -83.76299,
          42.24758
        ],
        [
          -83.76261,
          42.24744
        ],
        [
          -83.76225,
          42.24725
        ],
        [
          -83.76189,
          42.24706
        ],
        [
          -83.76155,
          42.24684
        ],
        [
          -83.76121,
          42.2466
        ],
        [
          -83.76087,
          42.24636
        ],
        [
          -83.76058,
          42.24601
        ],
        [
          -83.76047,
          42.24529
        ],
        [
          -83.7604,
          42.24445
        ],
        [
          -83.7602,
          42.24385
        ],
        [
          -83.75992,
          42.24338
        ],
        [
          -83.7596,
          42.243
        ],
        [
          -83.75924,
          42.24269
        ],
        [
          -83.75887,
          42.24239
        ],
        [
          -83.7585,
          42.24209
        ],
        [
          -83.75812,
          42.24178
        ],
        [
          -83.75774,
          42.24147
        ],
        [
          -83.75736,
          42.24116
        ],
        [
          -83.75697,
          42.24082
        ],
        [
          -83.75659,
          42.24049
        ],
        [
          -83.75618,
          42.24018
        ],
        [
          -83.75577,
          42.23988
        ],
        [
          -83.75535,
          42.23958
        ],
        [
          -83.75492,
          42.2393
        ],
        [
          -83.75448,
          42.23904
        ],
        [
          -83.75404,
          42.23879
        ],
        [
          -83.75358,
          42.23857
        ],
        [
          -83.75312,
          42.23835
        ],
        [
          -83.75265,
          42.23816
        ],
        [
          -83.75217,
          42.23797
        ],
        [
          -83.75169,
          42.2378
        ],
        [
          -83.7512,
          42.23764
        ],
        [
          -83.7507,
          42.2375
        ],
        [
          -83.75021,
          42.23738
        ],
        [
          -83.7497,
          42.23727
        ],
        [
          -83.7492,
          42.23717
        ],
        [
          -83.74869,
          42.23708
        ],
        [
          -83.74818,
          42.23702
        ],
        [
          -83.74766,
          42.23696
        ],
        [
          -83.74715,
          42.23692
        ],
        [
          -83.74663,
          42.2369
        ],
        [
          -83.74611,
          42.23689
        ],
        [
          -83.74559,
          42.23695
        ],
        [
          -83.74507,
          42.23697
        ],
        [
          -83.74455,
          42.23699
        ],
        [
          -83.74403,
          42.23701
        ],
        [
          -83.74352,
          42.23703
        ],
        [
          -83.743,
          42.23705
        ],
        [
          -83.74248,
          42.23712
        ],
        [
          -83.74197,
          42.23726
        ],
        [
          -83.74147,
          42.23749
        ],
        [
          -83.74097,
          42.23783
        ],
        [
          -83.74049,
          42.23824
        ],
        [
          -83.74,
          42.23844
        ],
        [
          -83.73951,
          42.23858
        ],
        [
          -83.73901,
          42.23862
        ],
        [
          -83.73851,
          42.23857
        ],
        [
          -83.738,
          42.2385
        ],
        [
          -83.73747,
          42.23827
        ],
        [
          -83.73691,
          42.23795
        ],
        [
          -83.73636,
          42.23765
        ],
        [
          -83.73581,
          42.23745
        ],
        [
          -83.73527,
          42.23734
        ],
        [
          -83.73473,
          42.23729
        ],
        [
          -83.73421,
          42.23727
        ],
        [
          -83.73368,
          42.23725
        ],
        [
          -83.73315,
          42.23723
        ],
        [
          -83.73261,
          42.2372
        ],
        [
          -83.73208,
          42.23721
        ],
        [
          -83.73155,
          42.23722
        ],
        [
          -83.73102,
          42.23724
        ],
        [
          -83.73049,
          42.23725
        ],
        [
          -83.72995,
          42.23726
        ],
        [
          -83.72942,
          42.23728
        ],
        [
          -83.72888,
          42.23729
        ],
        [
          -83.72834,
          42.2373
        ],
        [
          -83.7278,
          42.23731
        ],
        [
          -83.72726,
          42.23733
        ],
        [
          -83.72671,
          42.23734
        ],
        [
          -83.72616,
          42.23735
        ],
        [
          -83.72561,
          42.23736
        ],
        [
          -83.72506,
          42.23738
        ],
        [
          -83.7245,
          42.23739
        ],
        [
          -83.72394,
          42.23741
        ],
        [
          -83.72338,
          42.23742
        ],
        [
          -83.72282,
          42.23744
        ],
        [
          -83.72225,
          42.23745
        ],
        [
          -83.72168,
          42.23746
        ],
        [
          -83.72111,
          42.23748
        ],
        [
          -83.72053,
          42.23749
        ],
        [
          -83.71995,
          42.23751
        ],
        [
          -83.71937,
          42.23753
        ],
        [
          -83.71878,
          42.23754
        ],
        [
          -83.71819,
          42.23756
        ],
        [
          -83.71759,
          42.23757
        ],
        [
          -83.71699,
          42.23758
        ],
        [
          -83.71639,
          42.23759
        ],
        [
          -83.71578,
          42.2376
        ],
        [
          -83.71516,
          42.23762
        ],
        [
          -83.71453,
          42.23761
        ],
        [
          -83.71388,
          42.23758
        ],
        [
          -83.7132,
          42.23753
        ],
        [
          -83.71249,
          42.23744
        ],
        [
          -83.71176,
          42.23733
        ],
        [
          -83.71099,
          42.23719
        ],
        [
          -83.71016,
          42.23697
        ],
        [
          -83.70927,
          42.2367
        ],
        [
          -83.70831,
          42.23635
        ],
        [
          -83.70723,
          42.23588
        ],
        [
          -83.70607,
          42.23533
        ],
        [
          -83.70487,
          42.23477
        ],
        [
          -83.70361,
          42.23416
        ],
        [
          -83.70228,
          42.23351
        ],
        [
          -83.70091,
          42.23285
        ],
        [
          -83.69952,
          42.23219
        ],
        [
          -83.69806,
          42.23151
        ],
        [
          -83.69654,
          42.23079
        ],
        [
          -83.69497,
          42.23005
        ],
        [
          -83.69335,
          42.22931
        ],
        [
          -83.69164,
          42.2285
        ],
        [
          -83.69008,
          42.22789
        ],
        [
          -83.68893,
          42.22771
        ],
        [
          -83.68805,
          42.22782
        ],
        [
          -83.68733,
          42.22808
        ],
        [
          -83.68674,
          42.22847
        ],
        [
          -83.6863,
          42.22899
        ],
        [
          -83.68599,
          42.22963
        ],
        [
          -83.68584,
          42.2304
        ],
        [
          -83.68587,
          42.23131
        ],
        [
          -83.68589,
          42.23219
        ],
        [
          -83.6859,
          42.23305
        ],
        [
          -83.68585,
          42.23384
        ],
        [
          -83.68577,
          42.2346
        ],
        [
          -83.68578,
          42.2354
        ],
        [
          -83.68576,
          42.23617
        ],
        [
          -83.68566,
          42.23687
        ],
        [
          -83.68551,
          42.23752
        ],
        [
          -83.68532,
          42.23813
        ],
        [
          -83.68512,
          42.23872
        ],
        [
          -83.6849,
          42.23929
        ],
        [
          -83.68467,
          42.23985
        ],
        [
          -83.68444,
          42.2404
        ],
        [
          -83.68422,
          42.24095
        ],
        [
          -83.68403,
          42.24151
        ],
        [
          -83.68387,
          42.24209
        ],
        [
          -83.68377,
          42.2427
        ],
        [
          -83.6837,
          42.24333
        ],
        [
          -83.68369,
          42.24398
        ],
        [
          -83.68371,
          42.24464
        ],
        [
          -83.68374,
          42.24529
        ],
        [
          -83.68376,
          42.24593
        ],
        [
          -83.68378,
          42.24657
        ],
        [
          -83.6838,
          42.24719
        ],
        [
          -83.68382,
          42.2478
        ],
        [
          -83.68384,
          42.24841
        ],
        [
          -83.68385,
          42.24901
        ],
        [
          -83.68387,
          42.2496
        ],
        [
          -83.68392,
          42.25019
        ],
        [
          -83.68399,
          42.25079
        ],
        [
          -83.68406,
          42.25139
        ],
        [
          -83.68444,
          42.25212
        ],
        [
          -83.68533,
          42.25309
        ],
        [
          -83.68596,
          42.25391
        ],
        [
          -83.68605,
          42.25447
        ],
        [
          -83.68529,
          42.25463
        ],
        [
          -83.6861,
          42.25551
        ],
        [
          -83.68594,
          42.25593
        ],
        [
          -83.6856,
          42.25628
        ],
        [
          -83.68522,
          42.25661
        ],
        [
          -83.68487,
          42.25696
        ],
        [
          -83.6846,
          42.25734
        ],
        [
          -83.6844,
          42.25775
        ],
        [
          -83.68427,
          42.25818
        ],
        [
          -83.68419,
          42.25863
        ],
        [
          -83.68404,
          42.25905
        ],
        [
          -83.68388,
          42.25947
        ],
        [
          -83.6837,
          42.25987
        ],
        [
          -83.68349,
          42.26027
        ],
        [
          -83.68325,
          42.26065
        ],
        [
          -83.68295,
          42.26102
        ],
        [
          -83.68262,
          42.26138
        ],
        [
          -83.68224,
          42.26172
        ],
        [
          -83.68181,
          42.26205
        ],
        [
          -83.68137,
          42.26238
        ],
        [
          -83.68092,
          42.26271
        ],
        [
          -83.68048,
          42.26304
        ],
        [
          -83.68003,
          42.26338
        ],
        [
          -83.67957,
          42.26372
        ],
        [
          -83.67911,
          42.26406
        ],
        [
          -83.67865,
          42.26441
        ],
        [
          -83.67819,
          42.26476
        ],
        [
          -83.67774,
          42.26511
        ],
        [
          -83.67735,
          42.26549
        ],
        [
          -83.67703,
          42.26588
        ],
        [
          -83.67675,
          42.26628
        ],
        [
          -83.67653,
          42.2667
        ],
        [
          -83.67636,
          42.26713
        ],
        [
          -83.67624,
          42.26757
        ],
        [
          -83.67618,
          42.26802
        ],
        [
          -83.67617,
          42.26847
        ],
        [
          -83.67618,
          42.26893
        ],
        [
          -83.67619,
          42.26939
        ],
        [
          -83.6762,
          42.26984
        ],
        [
          -83.67621,
          42.2703
        ],
        [
          -83.67623,
          42.27075
        ],
        [
          -83.67624,
          42.2712
        ],
        [
          -83.67625,
          42.27165
        ],
        [
          -83.67626,
          42.27209
        ],
        [
          -83.67627,
          42.27254
        ],
        [
          -83.67629,
          42.27298
        ],
        [
          -83.6763,
          42.27342
        ],
        [
          -83.67631,
          42.27387
        ],
        [
          -83.67916,
          42.27458
        ],
        [
          -83.67841,
          42.27493
        ],
        [
          -83.67834,
          42.27535
        ],
        [
          -83.67807,
          42.27575
        ],
        [
          -83.6776,
          42.27614
        ],
        [
          -83.6772,
          42.27654
        ],
        [
          -83.67691,
          42.27695
        ],
        [
          -83.67669,
          42.27737
        ],
        [
          -83.67658,
          42.27779
        ],
        [
          -83.67653,
          42.27822
        ],
        [
          -83.67648,
          42.27865
        ],
        [
          -83.67644,
          42.27908
        ],
        [
          -83.67642,
          42.27951
        ],
        [
          -83.67643,
          42.27994
        ],
        [
          -83.67645,
          42.28037
        ],
        [
          -83.67647,
          42.2808
        ]
      ]
    ]
  }
}
